NORAD_CAT_ID,OBJECT_NAME,OBJECT_TYPE,EPOCH,MEAN_MOTION,ECCENTRICITY,INCLINATION,RA_OF_ASC_NODE,ARG_OF_PERICENTER,MEAN_ANOMALY,BSTAR,MEAN_MOTION_DOT,MEAN_MOTION_DDOT,TLE_LINE0,TLE_LINE1,TLE_LINE2,SEMIMAJOR_AXIS,PERIOD,APOGEE,PERIGEE,DECAYED
55653.0,STARLINK-5067,PAYLOAD,2024-05-16 11:38:29,14.98341938,0.0002786,70.0017,53.9473,258.1204,101.9643,-0.00013524,-1.707e-05,0.0,0 STARLINK-5067,1 55653U 23021AB  24137.48506339 -.00001707  00000-0 -13524-3 0  9992,2 55653  70.0017  53.9473 0002786 258.1204 101.9643 14.98341938 69602,6950.156,96.106,573.957,570.085,0.0
55653.0,STARLINK-5067,PAYLOAD,2024-05-16 18:03:01,14.98346713,0.0003018,70.001,53.2738,260.2722,99.8096,-0.00022385,-2.764e-05,0.0,0 STARLINK-5067,1 55653U 23021AB  24137.75210144 -.00002764  00000-0 -22385-3 0  9997,2 55653  70.0010  53.2738 0003018 260.2722  99.8096 14.98346713 69647,6950.141,96.106,574.104,569.909,0.0
55653.0,STARLINK-5067,PAYLOAD,2024-05-17 03:39:48,14.9835288,0.0002879,70.0014,52.2644,258.9362,101.1473,-0.00011263,-1.437e-05,0.0,0 STARLINK-5067,1 55653U 23021AB  24138.15264983 -.00001437  00000-0 -11263-3 0  9991,2 55653  70.0014  52.2644 0002879 258.9362 101.1473 14.98352880 69406,6950.122,96.106,573.988,569.986,0.0
55653.0,STARLINK-5067,PAYLOAD,2024-05-17 13:16:39,14.98316184,0.0003162,70.0008,51.2523,267.851,92.2287,-0.00053255,-6.439e-05,0.0,0 STARLINK-5067,1 55653U 23021AB  24138.55323781 -.00006439  00000-0 -53255-3 0  9991,2 55653  70.0008  51.2523 0003162 267.8510  92.2287 14.98316184 69460,6950.236,96.108,574.298,569.903,0.0
55653.0,STARLINK-5067,PAYLOAD,2024-05-18 11:42:32,14.98324307,0.0003238,70.0004,48.8977,266.7608,93.3181,-4.6922e-05,-6.53e-06,0.0,0 STARLINK-5067,1 55653U 23021AB  24139.48787435 -.00000653  00000-0 -46922-4 0  9990,2 55653  70.0004  48.8977 0003238 266.7608  93.3181 14.98324307 69608,6950.21,96.107,574.326,569.825,0.0
55653.0,STARLINK-5067,PAYLOAD,2024-05-18 21:19:19,14.98337466,0.0002899,70.0025,47.8888,266.6359,93.4468,0.0001119,1.243e-05,0.0,0 STARLINK-5067,1 55653U 23021AB  24139.88842404  .00001243  00000-0  11190-3 0  9994,2 55653  70.0025  47.8888 0002899 266.6359  93.4468 14.98337466 69660,6950.17,96.107,574.05,570.02,0.0
55653.0,STARLINK-5067,PAYLOAD,2024-05-18 22:55:27,14.98339049,0.000287,70.0015,47.7201,266.4755,93.6076,0.00013778,1.552e-05,0.0,0 STARLINK-5067,1 55653U 23021AB  24139.95518199  .00001552  00000-0  13778-3 0  9990,2 55653  70.0015  47.7201 0002870 266.4755  93.6076 14.98339049 69974,6950.165,96.106,574.025,570.035,0.0
55653.0,STARLINK-5067,PAYLOAD,2024-05-19 03:43:50,14.98353646,0.0003092,70.0006,47.2132,261.8175,98.2633,0.00025236,2.921e-05,0.0,0 STARLINK-5067,1 55653U 23021AB  24140.15544833  .00002921  00000-0  25236-3 0  9991,2 55653  70.0006  47.2132 0003092 261.8175  98.2633 14.98353646 69704,6950.12,96.105,574.134,569.836,0.0
55653.0,STARLINK-5067,PAYLOAD,2024-05-19 21:21:21,14.9831743,0.0003239,69.9996,45.3629,264.2582,95.8207,0.00034476,4.022e-05,0.0,0 STARLINK-5067,1 55653U 23021AB  24140.88983053  .00004022  00000-0  34476-3 0  9992,2 55653  69.9996  45.3629 0003239 264.2582  95.8207 14.98317430 69814,6950.232,96.108,574.348,569.846,0.0
55653.0,STARLINK-5067,PAYLOAD,2024-05-20 03:45:53,14.98333333,0.000348,70.0006,44.6891,263.6988,96.3774,0.00017139,1.953e-05,0.0,0 STARLINK-5067,1 55653U 23021AB  24141.15686785  .00001953  00000-0  17139-3 0  9992,2 55653  70.0006  44.6891 0003480 263.6988  96.3774 14.98333333 69852,6950.183,96.107,574.466,569.629,0.0
55653.0,STARLINK-5067,PAYLOAD,2024-05-21 03:47:53,14.98345045,0.0002887,70.0013,42.1644,264.8744,95.2086,-8.324e-07,-1.03e-06,0.0,0 STARLINK-5067,1 55653U 23021AB  24142.15826227 -.00000103  00000-0 -83240-6 0  9997,2 55653  70.0013  42.1644 0002887 264.8744  95.2086 14.98345045 70008,6950.146,96.106,574.018,570.005,0.0
55653.0,STARLINK-5067,PAYLOAD,2024-05-21 21:25:23,14.9832921,0.0002642,70.0018,40.3128,264.9574,95.1284,0.0001009,1.111e-05,0.0,0 STARLINK-5067,1 55653U 23021AB  24142.89262787  .00001111  00000-0  10090-3 0  9991,2 55653  70.0018  40.3128 0002642 264.9574  95.1284 14.98329210 70118,6950.195,96.107,573.897,570.224,0.0
55653.0,STARLINK-5067,PAYLOAD,2024-05-22 07:02:10,14.98343065,0.0002961,70.0009,39.3021,267.0046,93.0774,0.00020377,2.34e-05,0.0,0 STARLINK-5067,1 55653U 23021AB  24143.29317533  .00002340  00000-0  20377-3 0  9990,2 55653  70.0009  39.3021 0002961 267.0046  93.0774 14.98343065 70171,6950.152,96.106,574.075,569.96,0.0
55653.0,STARLINK-5067,PAYLOAD,2024-05-22 21:27:23,14.9833415,0.0003305,69.9996,37.7878,267.0111,93.067,-4.8377e-06,-1.51e-06,0.0,0 STARLINK-5067,1 55653U 23021AB  24143.89402512 -.00000151  00000-0 -48377-5 0  9990,2 55653  69.9996  37.7878 0003305 267.0111  93.0670 14.98334150 70261,6950.18,96.107,574.342,569.748,0.0
55653.0,STARLINK-5067,PAYLOAD,2024-05-23 03:51:55,14.98340078,0.0003062,69.9998,37.1132,270.1302,89.9506,0.00013304,1.495e-05,0.0,0 STARLINK-5067,1 55653U 23021AB  24144.16105945  .00001495  00000-0  13304-3 0  9991,2 55653  69.9998  37.1132 0003062 270.1302  89.9506 14.98340078 70300,6950.162,96.106,574.155,569.899,0.0
55653.0,STARLINK-5067,PAYLOAD,2024-05-23 11:52:36,14.98324747,0.0003181,70.0012,36.2726,267.6847,92.3948,-3.1041e-05,-4.63e-06,0.0,0 STARLINK-5067,1 55653U 23021AB  24144.49486797 -.00000463  00000-0 -31041-4 0  9999,2 55653  70.0012  36.2726 0003181 267.6847  92.3948 14.98324747 70354,6950.209,96.107,574.285,569.863,0.0
55653.0,STARLINK-5067,PAYLOAD,2024-05-23 13:28:44,14.98326144,0.0003171,70.0012,36.1041,267.2636,92.816,2.2543e-05,1.76e-06,0.0,0 STARLINK-5067,1 55653U 23021AB  24144.56162733  .00000176  00000-0  22543-4 0  9994,2 55653  70.0012  36.1041 0003171 267.2636  92.8160 14.98326144 70662,6950.205,96.107,574.274,569.866,0.0
55653.0,STARLINK-5067,PAYLOAD,2024-05-23 21:29:24,14.9833886,0.0003199,70.0014,35.2628,266.0693,94.01,0.00026993,3.13e-05,0.0,0 STARLINK-5067,1 55653U 23021AB  24144.89542177  .00003130  00000-0  26993-3 0  9999,2 55653  70.0014  35.2628 0003199 266.0693  94.0100 14.98338860 70414,6950.165,96.106,574.254,569.807,0.0
55653.0,STARLINK-5067,PAYLOAD,2024-05-24 13:30:45,14.98331962,0.000316,70.0016,33.5792,269.4555,90.6242,0.00051868,6.102e-05,0.0,0 STARLINK-5067,1 55653U 23021AB  24145.56302349  .00006102  00000-0  51868-3 0  9990,2 55653  70.0016  33.5792 0003160 269.4555  90.6242 14.98331962 70810,6950.187,96.107,574.248,569.856,0.0
55653.0,STARLINK-5067,PAYLOAD,2024-05-24 21:31:25,14.98336389,0.0003186,70.0015,32.7373,270.0681,90.0113,0.0012105,0.00014383,0.0,0 STARLINK-5067,1 55653U 23021AB  24145.89682303  .00014383  00000-0  12105-2 0  9997,2 55653  70.0015  32.7373 0003186 270.0681  90.0113 14.98336389 70562,6950.173,96.107,574.252,569.824,0.0
55653.0,STARLINK-5067,PAYLOAD,2024-05-24 23:07:33,14.98337514,0.0003174,70.0015,32.569,269.9353,90.1442,0.0013123,0.00015603,0.0,0 STARLINK-5067,1 55653U 23021AB  24145.96358282  .00015603  00000-0  13123-2 0  9998,2 55653  70.0015  32.5690 0003174 269.9353  90.1442 14.98337514 70873,6950.17,96.107,574.241,569.829,0.0
55653.0,STARLINK-5067,PAYLOAD,2024-05-25 11:56:38,14.98331699,0.0003171,70.0014,31.2228,271.5148,88.5648,0.0003858,4.514e-05,0.0,0 STARLINK-5067,1 55653U 23021AB  24146.49766348  .00004514  00000-0  38580-3 0  9997,2 55653  70.0014  31.2228 0003171 271.5148  88.5648 14.98331699 70656,6950.188,96.107,574.257,569.849,0.0
55653.0,STARLINK-5067,PAYLOAD,2024-05-25 15:08:54,14.98330044,0.0003191,70.0013,30.8862,271.7287,88.3507,0.00033004,3.847e-05,0.0,0 STARLINK-5067,1 55653U 23021AB  24146.63118405  .00003847  00000-0  33004-3 0  9992,2 55653  70.0013  30.8862 0003191 271.7287  88.3507 14.98330044 70972,6950.193,96.107,574.276,569.84,0.0
55653.0,STARLINK-5067,PAYLOAD,2024-05-26 11:58:39,14.9833382,0.0003124,70.0011,28.6975,271.3545,88.7257,0.00028538,3.314e-05,0.0,0 STARLINK-5067,1 55653U 23021AB  24147.49906367  .00003314  00000-0  28538-3 0  9994,2 55653  70.0011  28.6975 0003124 271.3545  88.7257 14.98333820 70802,6950.181,96.107,574.217,569.875,0.0
55653.0,STARLINK-5067,PAYLOAD,2024-05-26 13:34:47,14.98334319,0.0003115,70.0011,28.5292,271.1678,88.9125,0.00028842,3.35e-05,0.0,0 STARLINK-5067,1 55653U 23021AB  24147.56582345  .00003350  00000-0  28842-3 0  9996,2 55653  70.0011  28.5292 0003115 271.1678  88.9125 14.98334319 71113,6950.18,96.107,574.21,569.88,0.0
55653.0,STARLINK-5067,PAYLOAD,2024-05-26 21:35:27,14.98342539,0.0003119,70.001,27.6874,271.364,88.7161,0.00046659,5.48e-05,0.0,0 STARLINK-5067,1 55653U 23021AB  24147.89962004  .00005480  00000-0  46659-3 0  9998,2 55653  70.0010  27.6874 0003119 271.3640  88.7161 14.98342539 71169,6950.154,96.106,574.187,569.851,0.0
55653.0,STARLINK-5067,PAYLOAD,2024-05-27 02:23:50,14.98374944,0.0003024,70.0011,27.1823,272.1867,87.8946,0.001648,0.00019649,0.0,0 STARLINK-5067,1 55653U 23021AB  24148.09988951  .00019649  00000-0  16480-2 0  9990,2 55653  70.0011  27.1823 0003024 272.1867  87.8946 14.98374944 70899,6950.054,96.104,574.021,569.817,0.0
55653.0,STARLINK-5067,PAYLOAD,2024-05-27 08:48:23,14.98342504,0.0003199,70.0009,26.5088,273.2429,86.8364,0.00026507,3.072e-05,0.0,0 STARLINK-5067,1 55653U 23021AB  24148.36693445  .00003072  00000-0  26507-3 0  9996,2 55653  70.0009  26.5088 0003199 273.2429  86.8364 14.98342504 70936,6950.154,96.106,574.243,569.796,0.0
55653.0,STARLINK-5067,PAYLOAD,2024-05-27 20:01:19,14.98334538,0.0003298,70.0009,25.3307,274.2219,85.8563,2.6837e-05,2.27e-06,0.0,0 STARLINK-5067,1 55653U 23021AB  24148.83425698  .00000227  00000-0  26837-4 0  9997,2 55653  70.0009  25.3307 0003298 274.2219  85.8563 14.98334538 71002,6950.179,96.107,574.336,569.752,0.0
55653.0,STARLINK-5067,PAYLOAD,2024-05-27 21:37:27,14.9833268,0.0003273,70.001,25.1624,272.142,87.9365,-0.00012962,-1.639e-05,0.0,0 STARLINK-5067,1 55653U 23021AB  24148.90101613 -.00001639  00000-0 -12962-3 0  9996,2 55653  70.0010  25.1624 0003273 272.1420  87.9365 14.98332680 71311,6950.185,96.107,574.324,569.775,0.0
